1 45198U 20012W   22365.20245018  .00006900  00000-0  48145-3 0  9992
2 45198  53.0525 214.2183 0001454  75.7171 284.3979 15.06416111159544
1 45198U 20012W   22365.86592338 -.00001729  00000-0 -97226-4 0  9995
2 45198  53.0525 211.2401 0001318  73.7056 286.4078 15.06394654159644
1 45198U 20012W   23001.59574011 -.00002031  00000-0 -11752-3 0  9997
2 45198  53.0524 207.9638 0001454  76.0085 284.1065 15.06393012159756
1 45198U 20012W   23001.86112880 -.00001321  00000-0 -69836-4 0  9997
2 45198  53.0528 206.7724 0001461  75.3315 284.7836 15.06394905159797
1 45198U 20012W   23001.99382205 -.00001073  00000-0 -53147-4 0  9993
2 45198  53.0526 206.1765 0001460  75.8952 284.2199 15.06395696158935
1 45198U 20012W   23002.59094718  .00000413  00000-0  46661-4 0  9997
2 45198  53.0529 203.4959 0001526  70.9562 289.1592 15.06392914159908
1 45198U 20012W   23002.72364073  .00000836  00000-0  75055-4 0  9994
2 45198  53.0528 202.8999 0001491  76.0702 284.0452 15.06394076159920
1 45198U 20012W   23003.25441801  .00002871  00000-0  21158-3 0  9993
2 45198  53.0529 200.5174 0001543  77.0118 283.1043 15.06395070159124
1 45198U 20012W   23003.51980491  .00002774  00000-0  20509-3 0  9996
2 45198  53.0527 199.3260 0001533  78.4933 281.6228 15.06397112160042
1 45198U 20012W   23004.24961699  .00003550  00000-0  25705-3 0  9992
2 45198  53.0526 196.0496 0001531  78.6707 281.4454 15.06405238160155
1 45198U 20012W   23004.78038778  .00003843  00000-0  27668-3 0  9999
2 45198  53.0524 193.6666 0001555  79.5981 280.5183 15.06410166160239
1 45198U 20012W   23004.78038778  .00003843  00000-0  27668-3 0  9999
2 45198  53.0524 193.6666 0001555  79.5981 280.5183 15.06410166159350
1 45198U 20012W   23005.51019910  .00002360  00000-0  17724-3 0  9993
2 45198  53.0522 190.3900 0001589  80.2762 279.8406 15.06409310160345
1 45198U 20012W   23005.77559094  .00000024  00000-0  20494-4 0  9997
2 45198  53.0521 189.1993 0001618  79.9673 280.1499 15.06400025160386
1 45198U 20012W   23005.77559094  .00000024  00000-0  20494-4 0  9997
2 45198  53.0521 189.1993 0001618  79.9673 280.1499 15.06400025159508
1 45198U 20012W   23006.83714785 -.00001109  00000-0 -55548-4 0  9990
2 45198  53.0540 184.4315 0001528  85.6726 274.4438 15.06392842160540
1 45198U 20012W   23006.83714785 -.00001109  00000-0 -55548-4 0  9990
2 45198  53.0540 184.4315 0001528  85.6726 274.4438 15.06392842159661
1 45198U 20012W   23007.89869823  .00000747  00000-0  69064-4 0  9994
2 45198  53.0536 179.6680 0001375  74.7425 285.3716 15.06393284160700
1 45198U 20012W   23007.89869823  .00000747  00000-0  69064-4 0  9994
2 45198  53.0536 179.6680 0001375  74.7425 285.3716 15.06393284159821
1 45198U 20012W   23008.49581772  .00002402  00000-0  18009-3 0  9997
2 45198  53.0541 176.9876 0001299  76.3636 283.7497 15.06395098160792
1 45198U 20012W   23008.76120250  .00002962  00000-0  21764-3 0  9990
2 45198  53.0542 175.7964 0001328  77.6094 282.5043 15.06399608160833
1 45198U 20012W   23009.15928880  .00001995  00000-0  15283-3 0  9993
2 45198  53.0538 174.0095 0001256  75.3861 284.7267 15.06395536160010
1 45198U 20012W   23009.42467627  .00001413  00000-0  11373-3 0  9991
2 45198  53.0539 172.8180 0001258  76.7840 283.3289 15.06397961160930
1 45198U 20012W   23010.41987642  .00000581  00000-0  57928-4 0  9998
2 45198  53.0518 168.3498 0001567  80.6738 279.4428 15.06401717161085
1 45198U 20012W   23010.41987642  .00000581  00000-0  57928-4 0  9998
2 45198  53.0518 168.3498 0001567  80.6738 279.4428 15.06401717160208
1 45198U 20012W   23010.68525843 -.00004235  00000-0 -26543-3 0  9998
2 45198  53.0519 167.1587 0001408  83.2067 276.9082 15.06416741161126
1 45198U 20012W   23010.68525843 -.00004235  00000-0 -26543-3 0  9998
2 45198  53.0519 167.1587 0001408  83.2067 276.9082 15.06416741160248
1 45198U 20012W   23011.14969307  .00000748  00000-0  69091-4 0  9996
2 45198  53.0537 165.0747 0001461  73.1376 286.9773 15.06398337161196
1 45198U 20012W   23011.14969307  .00000748  00000-0  69091-4 0  9996
2 45198  53.0537 165.0747 0001461  73.1376 286.9773 15.06398337160319
1 45198U 20012W   23011.68047413 -.00000383  00000-0 -68284-5 0  9991
2 45198  53.0500 162.6910 0001653  79.9913 280.1263 15.06392746160394
1 45198U 20012W   23011.81317299 -.00001013  00000-0 -49095-4 0  9997
2 45198  53.0554 162.0983 0001709  72.2664 287.8512 15.06388756161295
1 45198U 20012W   23012.14490685 -.00000185  00000-0  64601-5 0  9994
2 45198  53.0538 160.6070 0001554  76.7669 283.3493 15.06388375161342
1 45198U 20012W   23012.14490685 -.00000185  00000-0  64601-5 0  9994
2 45198  53.0538 160.6070 0001554  76.7669 283.3493 15.06388375160464
1 45198U 20012W   23013.53819933  .00005423  00000-0  38291-3 0  9992
2 45198  53.0513 154.3515 0001071  78.6196 281.4914 15.06373061160677
1 45198U 20012W   23013.67088383  .00002358  00000-0  17717-3 0  9998
2 45198  53.0513 153.7545 0001371  84.2153 275.8992 15.06394988161576
1 45198U 20012W   23013.67088383  .00002358  00000-0  17717-3 0  9998
2 45198  53.0513 153.7545 0001371  84.2153 275.8992 15.06394988160698
1 45198U 20012W   23014.40070572  .00001111  00000-0  93464-4 0  9991
2 45198  53.0525 150.4798 0001129  84.1276 275.9842 15.06392542160803
1 45198U 20012W   23014.79877960  .00001671  00000-0  13105-3 0  9993
2 45198  53.0527 148.6919 0001118  83.4991 276.6125 15.06405423160864
1 45198U 20012W   23015.06418000 -.00000405  00000-0 -82911-5 0  9999
2 45198  53.0519 147.4996 0001439  82.4061 277.7091 15.06393116160904
1 45198U 20012W   23015.59495070 -.00000452  00000-0 -11437-4 0  9995
2 45198  53.0537 145.1191 0001278 100.4990 259.6143 15.06394260161863
1 45198U 20012W   23015.66129462  .00001008  00000-0  86556-4 0  9992
2 45198  53.0518 144.8203 0001101  91.3765 268.7350 15.06399508161877
1 45198U 20012W   23015.66129462  .00001008  00000-0  86556-4 0  9992
2 45198  53.0518 144.8203 0001101  91.3765 268.7350 15.06399508160999
1 45198U 20012W   23016.59015093  .00000951  00000-0  82698-4 0  9998
2 45198  53.0536 140.6506 0001369  78.3015 281.8127 15.06402654162018
1 45198U 20012W   23016.85553050  .00003830  00000-0  27576-3 0  9999
2 45198  53.0508 139.4584 0001038  86.2357 273.8751 15.06413956162054
1 45198U 20012W   23016.85553050  .00003830  00000-0  27576-3 0  9999
2 45198  53.0508 139.4584 0001038  86.2357 273.8751 15.06413956161176
1 45198U 20012W   23017.05459309 -.00003213  00000-0 -19705-3 0  9996
2 45198  53.0520 138.5643 0001333  93.9988 266.1154 15.06373752161204
1 45198U 20012W   23017.58536536  .00000758  00000-0  69778-4 0  9997
2 45198  53.0516 136.1835 0001072  89.8887 270.2225 15.06387276162165
1 45198U 20012W   23017.58536536  .00000758  00000-0  69778-4 0  9997
2 45198  53.0516 136.1835 0001072  89.8887 270.2225 15.06387276161287
1 45198U 20012W   23018.31517719  .00003699  00000-0  26707-3 0  9992
2 45198  53.0530 132.9085 0001040  80.9129 279.1978 15.06400386161393
1 45198U 20012W   23018.58055586  .00005290  00000-0  37360-3 0  9996
2 45198  53.0517 131.7148 0001172  83.0302 277.0820 15.06417402162311
1 45198U 20012W   23018.58055586  .00005290  00000-0  37360-3 0  9996
2 45198  53.0517 131.7148 0001172  83.0302 277.0820 15.06417402161433
1 45198U 20012W   23019.31038353  .00004877  00000-0  34614-3 0  9990
2 45198  53.0531 128.4390 0000796  83.1752 276.9327 15.06394007161549
1 45198U 20012W   23019.44307503  .00003851  00000-0  27728-3 0  9999
2 45198  53.0519 127.8432 0000983  90.3129 269.7972 15.06399243162444
1 45198U 20012W   23019.70845736  .00004580  00000-0  32607-3 0  9995
2 45198  53.0517 126.6495 0001171 108.3299 251.7818 15.06408675161603
1 45198U 20012W   23020.50461997  .00002830  00000-0  20877-3 0  9990
2 45198  53.0525 123.0732 0001481 116.5769 243.5372 15.06407827162607
1 45198U 20012W   23020.50461997  .00002830  00000-0  20877-3 0  9990
2 45198  53.0525 123.0732 0001481 116.5769 243.5372 15.06407827161729
1 45198U 20012W   23021.43347824  .00000199  00000-0  32278-4 0  9990
2 45198  53.0555 118.9158 0001708 114.2928 245.8239 15.06399668161866
1 45198U 20012W   23021.63251282  .00003642  00000-0  26322-3 0  9992
2 45198  53.0524 118.0128 0001140  89.5448 270.5671 15.06408001161891
1 45198U 20012W   23022.49502681  .00000234  00000-0  34635-4 0  9990
2 45198  53.0524 114.1426 0001285  84.4442 275.6694 15.06398630162020
1 45198U 20012W   23023.02580805 -.00000849  00000-0 -38100-4 0  9999
2 45198  53.0547 111.7636 0001127  82.4460 277.6657 15.06389050162100
1 45198U 20012W   23023.49023321  .00002900  00000-0  21353-3 0  9994
2 45198  53.0529 109.6745 0001072  79.5703 280.5406 15.06398612162179
1 45198U 20012W   23024.48543890  .00000479  00000-0  51074-4 0  9995
2 45198  53.0525 105.2059 0001205  84.1840 275.9287 15.06395931162320
1 45198U 20012W   23025.48064437  .00003135  00000-0  22928-3 0  9998
2 45198  53.0510 100.7389 0001358  89.1814 270.9331 15.06399322163352
1 45198U 20012W   23026.07776695  .00005019  00000-0  35562-3 0  9991
2 45198  53.0508  98.0579 0001384  94.2309 265.8838 15.06399559162563
1 45198U 20012W   23026.40949964  .00004100  00000-0  29398-3 0  9999
2 45198  53.0516  96.5682 0001284  89.7651 270.3485 15.06401975163496
1 45198U 20012W   23027.20566368  .00000303  00000-0  39266-4 0  9998
2 45198  53.0517  92.9957 0001281  92.9960 267.1176 15.06393562162737
1 45198U 20012W   23027.47104904  .00001635  00000-0  12865-3 0  9995
2 45198  53.0522  91.8028 0001238  96.5143 263.5987 15.06397412163655
1 45198U 20012W   23027.86913171  .00000269  00000-0  36932-4 0  9996
2 45198  53.0522  90.0150 0001208  96.8526 263.2600 15.06397493163712
1 45198U 20012W   23028.46625241  .00000829  00000-0  74511-4 0  9998
2 45198  53.0523  87.3349 0001219  99.7530 260.3596 15.06398783163806
1 45198U 20012W   23028.46625241  .00000829  00000-0  74511-4 0  9998
2 45198  53.0523  87.3349 0001219  99.7530 260.3596 15.06398783162928
1 45198U 20012W   23028.86433359  .00000606  00000-0  59550-4 0  9998
2 45198  53.0525  85.5480 0001250  85.2590 274.8542 15.06399693163863
1 45198U 20012W   23028.99703243  .00000927  00000-0  81134-4 0  9993
2 45198  53.0524  84.9522 0001168  90.1341 269.9782 15.06389643163000
1 45198U 20012W   23029.52780386  .00001053  00000-0  89550-4 0  9997
2 45198  53.0524  82.5693 0001169  88.0270 272.0853 15.06396083163089
1 45198U 20012W   23029.85954186  .00003370  00000-0  24511-3 0  9993
2 45198  53.0524  81.0799 0001130 101.6625 258.4491 15.06384495164018
1 45198U 20012W   23030.39031351  .00001520  00000-0  12089-3 0  9996
2 45198  53.0523  78.6969 0001212  87.7135 272.3993 15.06395774164091
1 45198U 20012W   23030.85473883  .00000287  00000-0  38174-4 0  9990
2 45198  53.0523  76.6116 0001197  92.3394 267.7732 15.06401367164167
1 45198U 20012W   23030.85473883  .00000287  00000-0  38174-4 0  9990
2 45198  53.0523  76.6116 0001197  92.3394 267.7732 15.06401367163289
1 45198U 20012W   23031.51820838  .00000405  00000-0  46099-4 0  9997
2 45198  53.0523  73.6328 0001283  87.1673 272.9462 15.06399711164265
